GSAT0103 (GALILEO-FM3)
1 38857U 12055A   25331.68977556  .00000055  00000+0  00000+0 0  9999
2 38857  55.6835 107.0800 0002209 266.7552  93.2004  1.70473338 81572